O3B MPOWER F9           
1 64866U 25153A   26094.01652050 -.00000026  00000+0  00000+0 0  9993
2 64866   0.0510  14.9199 0005159  24.4528 320.6631  5.00116246 15851
O3B MPOWER F10          
1 64867U 25153B   26094.18226116 -.00000026  00000+0  00000+0 0  9992
2 64867   0.0516   9.6909 0003614 256.6776  93.5886  5.00115051 18322
